start=new Date('2022-09-26T00:00:00.000Z').valueOf();
sats=[{"MEAN_MOTION_DDOT":"0.0000000000000","GP_ID":"213503409","TLE_LINE2":"2 44969  53.0530 208.0391 0001428  77.6550 282.4598 15.06408128150322","MEAN_ANOMALY":"282.4598","OBJECT_TYPE":"PAYLOAD","REV_AT_EPOCH":"15032","OBJECT_NAME":"STARLINK-1092","MEAN_ELEMENT_THEORY":"SGP4","MEAN_MOTION":"15.06408128","ECCENTRICITY":"0.00014280","EPOCH":"2022-09-25T13:32:52.878624","ELEMENT_SET_NO":"999","DECAY_DATE":null,"COUNTRY_CODE":"US","APOAPSIS":"548.178","BSTAR":"0.00011644000000","TLE_LINE1":"1 44969U 20001BH  22268.56450091  .00001454  00000-0  11644-3 0  9998","SEMIMAJOR_AXIS":"6925.324","CLASSIFICATION_TYPE":"U","RA_OF_ASC_NODE":"208.0391","EPHEMERIS_TYPE":"0","PERIAPSIS":"546.200","REF_FRAME":"TEME","NORAD_CAT_ID":"44969","FILE":"3583828","LAUNCH_DATE":"2020-01-07","OBJECT_ID":"2020-001BH","ARG_OF_PERICENTER":"77.6550","SITE":"AFETR","CENTER_NAME":"EARTH","PERIOD":"95.592","TIME_SYSTEM":"UTC","MEAN_MOTION_DOT":"0.00001454","INCLINATION":"53.0530","RCS_SIZE":"LARGE"},{"OBJECT_TYPE":"PAYLOAD","MEAN_ANOMALY":"272.7221","REV_AT_EPOCH":"15031","OBJECT_NAME":"STARLINK-1093","MEAN_MOTION_DDOT":"0.0000000000000","TLE_LINE2":"2 44970  53.0539 208.1215 0001265  87.3912 272.7221 15.06397881150315","GP_ID":"213421198","DECAY_DATE":null,"COUNTRY_CODE":"US","TLE_LINE1":"1 44970U 20001BJ  22268.54238289 -.00000148  00000-0  89491-5 0  9998","SEMIMAJOR_AXIS":"6925.355","BSTAR":"0.00000894910000","APOAPSIS":"548.096","CLASSIFICATION_TYPE":"U","RA_OF_ASC_NODE":"208.1215","MEAN_ELEMENT_THEORY":"SGP4","EPOCH":"2022-09-25T13:01:01.881696","ECCENTRICITY":"0.00012650","MEAN_MOTION":"15.06397881","ELEMENT_SET_NO":"999","NORAD_CAT_ID":"44970","FILE":"3583294","ARG_OF_PERICENTER":"87.3912","OBJECT_ID":"2020-001BJ","LAUNCH_DATE":"2020-01-07","EPHEMERIS_TYPE":"0","REF_FRAME":"TEME","PERIAPSIS":"546.344","TIME_SYSTEM":"UTC","INCLINATION":"53.0539","MEAN_MOTION_DOT":"-0.00000148","RCS_SIZE":"LARGE","SITE":"AFETR","CENTER_NAME":"EARTH","PERIOD":"95.592"},{"NORAD_CAT_ID":"44972","FILE":"3583351","ARG_OF_PERICENTER":"92.7585","OBJECT_ID":"2020-001BL","LAUNCH_DATE":"2020-01-07","EPHEMERIS_TYPE":"0","REF_FRAME":"TEME","PERIAPSIS":"546.276","TIME_SYSTEM":"UTC","MEAN_MOTION_DOT":"0.00006850","INCLINATION":"53.0530","RCS_SIZE":"LARGE","SITE":"AFETR","CENTER_NAME":"EARTH","PERIOD":"95.592","OBJECT_TYPE":"PAYLOAD","MEAN_ANOMALY":"267.3562","REV_AT_EPOCH":"15026","OBJECT_NAME":"STARLINK-1107","MEAN_MOTION_DDOT":"0.0000000000000","GP_ID":"213442598","TLE_LINE2":"2 44972  53.0530 210.0582 0001373  92.7585 267.3562 15.06395666150264","COUNTRY_CODE":"US","DECAY_DATE":null,"TLE_LINE1":"1 44972U 20001BL  22268.11481407  .00006850  00000-0  47835-3 0  9994","BSTAR":"0.00047835000000","SEMIMAJOR_AXIS":"6925.362","APOAPSIS":"548.178","CLASSIFICATION_TYPE":"U","RA_OF_ASC_NODE":"210.0582","MEAN_ELEMENT_THEORY":"SGP4","EPOCH":"2022-09-25T02:45:19.935648","ECCENTRICITY":"0.00013730","MEAN_MOTION":"15.06395666","ELEMENT_SET_NO":"999"},{"CENTER_NAME":"EARTH","SITE":"AFETR","PERIOD":"95.592","MEAN_MOTION_DOT":"0.00003786","INCLINATION":"53.0534","TIME_SYSTEM":"UTC","RCS_SIZE":"LARGE","EPHEMERIS_TYPE":"0","PERIAPSIS":"546.260","REF_FRAME":"TEME","FILE":"3583351","NORAD_CAT_ID":"44973","ARG_OF_PERICENTER":"77.7333","OBJECT_ID":"2020-001BM","LAUNCH_DATE":"2020-01-07","MEAN_ELEMENT_THEORY":"SGP4","ELEMENT_SET_NO":"999","EPOCH":"2022-09-25T13:22:15.446208","ECCENTRICITY":"0.00013540","MEAN_MOTION":"15.06405125","BSTAR":"0.00027290000000","TLE_LINE1":"1 44973U 20001BM  22268.55712322  .00003786  00000-0  27290-3 0  9994","SEMIMAJOR_AXIS":"6925.333","APOAPSIS":"548.136","DECAY_DATE":null,"COUNTRY_CODE":"US","RA_OF_ASC_NODE":"208.0611","CLASSIFICATION_TYPE":"U","GP_ID":"213441848","TLE_LINE2":"2 44973  53.0534 208.0611 0001354  77.7333 282.3808 15.06405125150321","MEAN_MOTION_DDOT":"0.0000000000000","OBJECT_TYPE":"PAYLOAD","MEAN_ANOMALY":"282.3808","OBJECT_NAME":"STARLINK-1115","REV_AT_EPOCH":"15032"},{"INCLINATION":"53.0538","MEAN_MOTION_DOT":"0.00001272","TIME_SYSTEM":"UTC","RCS_SIZE":"LARGE","CENTER_NAME":"EARTH","SITE":"AFETR","PERIOD":"95.592","NORAD_CAT_ID":"45044","FILE":"3583351","OBJECT_ID":"2020-006A","LAUNCH_DATE":"2020-01-29","ARG_OF_PERICENTER":"69.2374","EPHEMERIS_TYPE":"0","REF_FRAME":"TEME","PERIAPSIS":"546.295","APOAPSIS":"548.091","SEMIMAJOR_AXIS":"6925.328","TLE_LINE1":"1 45044U 20006A   22268.00054595  .00001272  00000-0  10428-3 0  9993","BSTAR":"0.00010428000000","COUNTRY_CODE":"US","DECAY_DATE":null,"RA_OF_ASC_NODE":"170.5609","CLASSIFICATION_TYPE":"U","MEAN_ELEMENT_THEORY":"SGP4","ELEMENT_SET_NO":"999","MEAN_MOTION":"15.06406702","ECCENTRICITY":"0.00012970","EPOCH":"2022-09-25T00:00:47.170080","MEAN_ANOMALY":"290.8754","OBJECT_TYPE":"PAYLOAD","REV_AT_EPOCH":"14657","OBJECT_NAME":"STARLINK-1132","GP_ID":"213443104","TLE_LINE2":"2 45044  53.0538 170.5609 0001297  69.2374 290.8754 15.06406702146570","MEAN_MOTION_DDOT":"0.0000000000000"},{"PERIOD":"95.591","SITE":"AFETR","CENTER_NAME":"EARTH","RCS_SIZE":"LARGE","TIME_SYSTEM":"UTC","INCLINATION":"53.0550","MEAN_MOTION_DOT":"0.00003651","PERIAPSIS":"546.030","REF_FRAME":"TEME","EPHEMERIS_TYPE":"0","LAUNCH_DATE":"2020-01-29","OBJECT_ID":"2020-006B","ARG_OF_PERICENTER":"74.5816","NORAD_CAT_ID":"45045","FILE":"3583351","MEAN_MOTION":"15.06413422","EPOCH":"2022-09-25T01:16:23.580480","ECCENTRICITY":"0.00016500","ELEMENT_SET_NO":"999","MEAN_ELEMENT_THEORY":"SGP4","CLASSIFICATION_TYPE":"U","RA_OF_ASC_NODE":"190.3132","DECAY_DATE":null,"COUNTRY_CODE":"US","APOAPSIS":"548.315","BSTAR":"0.00026378000000","TLE_LINE1":"1 45045U 20006B   22268.05305070  .00003651  00000-0  26378-3 0  9990","SEMIMAJOR_AXIS":"6925.307","MEAN_MOTION_DDOT":"0.0000000000000","GP_ID":"213441355","TLE_LINE2":"2 45045  53.0550 190.3132 0001650  74.5816 285.5355 15.06413422146305","OBJECT_NAME":"STARLINK-1120","REV_AT_EPOCH":"14630","MEAN_ANOMALY":"285.5355","OBJECT_TYPE":"PAYLOAD"},{"OBJECT_ID":"2020-006C","LAUNCH_DATE":"2020-01-29","ARG_OF_PERICENTER":"120.8469","FILE":"3583351","NORAD_CAT_ID":"45046","PERIAPSIS":"509.244","REF_FRAME":"TEME","EPHEMERIS_TYPE":"0","RCS_SIZE":"LARGE","MEAN_MOTION_DOT":"0.00022151","INCLINATION":"52.9939","TIME_SYSTEM":"UTC","PERIOD":"94.831","CENTER_NAME":"EARTH","SITE":"AFETR","REV_AT_EPOCH":"14659","OBJECT_NAME":"STARLINK-1129","MEAN_ANOMALY":"239.2688","OBJECT_TYPE":"PAYLOAD","GP_ID":"213441604","TLE_LINE2":"2 45046  52.9939 168.7253 0001669 120.8469 239.2688 15.18493774146594","MEAN_MOTION_DDOT":"0.0000000000000","RA_OF_ASC_NODE":"168.7253","CLASSIFICATION_TYPE":"U","APOAPSIS":"511.544","TLE_LINE1":"1 45046U 20006C   22268.46351501  .00022151  00000-0  10729-2 0  9994","BSTAR":"0.00107290000000","SEMIMAJOR_AXIS":"6888.529","COUNTRY_CODE":"US","DECAY_DATE":null,"ELEMENT_SET_NO":"999","MEAN_MOTION":"15.18493774","EPOCH":"2022-09-25T11:07:27.696864","ECCENTRICITY":"0.00016690","MEAN_ELEMENT_THEORY":"SGP4"},{"NORAD_CAT_ID":"45047","FILE":"3583351","ARG_OF_PERICENTER":"83.5188","OBJECT_ID":"2020-006D","LAUNCH_DATE":"2020-01-29","EPHEMERIS_TYPE":"0","REF_FRAME":"TEME","PERIAPSIS":"546.062","MEAN_MOTION_DOT":"0.00002074","INCLINATION":"53.0551","TIME_SYSTEM":"UTC","RCS_SIZE":"LARGE","CENTER_NAME":"EARTH","SITE":"AFETR","PERIOD":"95.592","OBJECT_TYPE":"PAYLOAD","MEAN_ANOMALY":"276.5987","REV_AT_EPOCH":"14630","OBJECT_NAME":"STARLINK-1131","TLE_LINE2":"2 45047  53.0551 190.3136 0001631  83.5188 276.5987 15.06407091146309","GP_ID":"213442355","MEAN_MOTION_DDOT":"0.0000000000000","BSTAR":"0.00015804000000","TLE_LINE1":"1 45047U 20006D   22268.05768292  .00002074  00000-0  15804-3 0  9991","SEMIMAJOR_AXIS":"6925.327","APOAPSIS":"548.321","COUNTRY_CODE":"US","DECAY_DATE":null,"RA_OF_ASC_NODE":"190.3136","CLASSIFICATION_TYPE":"U","MEAN_ELEMENT_THEORY":"SGP4","ELEMENT_SET_NO":"999","ECCENTRICITY":"0.00016310","EPOCH":"2022-09-25T01:23:03.804288","MEAN_MOTION":"15.06407091"},{"REV_AT_EPOCH":"14630","OBJECT_NAME":"STARLINK-1134","OBJECT_TYPE":"PAYLOAD","MEAN_ANOMALY":"266.8227","MEAN_MOTION_DDOT":"0.0000000000000","GP_ID":"213442605","TLE_LINE2":"2 45048  53.0547 190.2646 0001244  93.2904 266.8227 15.06405613146301","CLASSIFICATION_TYPE":"U","RA_OF_ASC_NODE":"190.2646","DECAY_DATE":null,"COUNTRY_CODE":"US","BSTAR":"0.00009862100000","TLE_LINE1":"1 45048U 20006E   22268.06504876  .00001188  00000-0  98621-4 0  9993","SEMIMAJOR_AXIS":"6925.331","APOAPSIS":"548.058","ECCENTRICITY":"0.00012440","EPOCH":"2022-09-25T01:33:40.212864","MEAN_MOTION":"15.06405613","ELEMENT_SET_NO":"999","MEAN_ELEMENT_THEORY":"SGP4","ARG_OF_PERICENTER":"93.2904","OBJECT_ID":"2020-006E","LAUNCH_DATE":"2020-01-29","NORAD_CAT_ID":"45048","FILE":"3583351","REF_FRAME":"TEME","PERIAPSIS":"546.335","EPHEMERIS_TYPE":"0","RCS_SIZE":"LARGE","TIME_SYSTEM":"UTC","INCLINATION":"53.0547","MEAN_MOTION_DOT":"0.00001188","PERIOD":"95.592","SITE":"AFETR","CENTER_NAME":"EARTH"},{"FILE":"3583351","NORAD_CAT_ID":"45049","LAUNCH_DATE":"2020-01-29","OBJECT_ID":"2020-006F","ARG_OF_PERICENTER":"34.0664","EPHEMERIS_TYPE":"0","PERIAPSIS":"531.331","REF_FRAME":"TEME","TIME_SYSTEM":"UTC","MEAN_MOTION_DOT":"0.00022404","INCLINATION":"53.0552","RCS_SIZE":"LARGE","SITE":"AFETR","CENTER_NAME":"EARTH","PERIOD":"95.280","MEAN_ANOMALY":"326.0401","OBJECT_TYPE":"PAYLOAD","REV_AT_EPOCH":"14636","OBJECT_NAME":"STARLINK-1135","MEAN_MOTION_DDOT":"0.0000000000000","GP_ID":"213441855","TLE_LINE2":"2 45049  53.0552 186.0049 0001154  34.0664 326.0401 15.11335257146365","DECAY_DATE":null,"COUNTRY_CODE":"US","APOAPSIS":"532.926","TLE_LINE1":"1 45049U 20006F   22268.05152051  .00022404  00000-0  13272-2 0  9998","BSTAR":"0.00132720000000","SEMIMAJOR_AXIS":"6910.264","CLASSIFICATION_TYPE":"U","RA_OF_ASC_NODE":"186.0049","MEAN_ELEMENT_THEORY":"SGP4","MEAN_MOTION":"15.11335257","ECCENTRICITY":"0.00011540","EPOCH":"2022-09-25T01:14:11.372064","ELEMENT_SET_NO":"999"}];
